CCSDS_OMM_VERS = 2.0
CREATION_DATE  = 
ORIGINATOR     = 

OBJECT_NAME    = SL-16 R/B
OBJECT_ID      = 1993-016B
CENTER_NAME    = EARTH
REF_FRAME      = TEME
TIME_SYSTEM    = UTC
MEAN_ELEMENT_THEORY = SGP/SGP4

EPOCH          = 2026-01-31T04:18:37.638720
MEAN_MOTION    = 14.15302242
ECCENTRICITY   = .00097001
INCLINATION    = 71.0085
RA_OF_ASC_NODE = 293.9671
ARG_OF_PERICENTER = 7.7033
MEAN_ANOMALY   = 352.4237

EPHEMERIS_TYPE = 0
CLASSIFICATION_TYPE = U
NORAD_CAT_ID   = 22566
ELEMENT_SET_NO = 999
REV_AT_EPOCH   = 69686
BSTAR          = .14723858E-3
MEAN_MOTION_DOT = .239E-5
MEAN_MOTION_DDOT = 0

CCSDS_OMM_VERS = 2.0
CREATION_DATE  = 
ORIGINATOR     = 

OBJECT_NAME    = COSMOS 2242
OBJECT_ID      = 1993-024A
CENTER_NAME    = EARTH
REF_FRAME      = TEME
TIME_SYSTEM    = UTC
MEAN_ELEMENT_THEORY = SGP/SGP4

EPOCH          = 2026-01-31T06:11:32.299872
MEAN_MOTION    = 14.96382233
ECCENTRICITY   = .00180272
INCLINATION    = 82.5208
RA_OF_ASC_NODE = 302.5139
ARG_OF_PERICENTER = 72.5288
MEAN_ANOMALY   = 287.7903

EPHEMERIS_TYPE = 0
CLASSIFICATION_TYPE = U
NORAD_CAT_ID   = 22626
ELEMENT_SET_NO = 999
REV_AT_EPOCH   = 77479
BSTAR          = .19501307E-3
MEAN_MOTION_DOT = .2241E-4
MEAN_MOTION_DDOT = 0

CCSDS_OMM_VERS = 2.0
CREATION_DATE  = 
ORIGINATOR     = 

OBJECT_NAME    = SL-16 R/B
OBJECT_ID      = 1993-059B
CENTER_NAME    = EARTH
REF_FRAME      = TEME
TIME_SYSTEM    = UTC
MEAN_ELEMENT_THEORY = SGP/SGP4

EPOCH          = 2026-01-31T06:43:57.386784
MEAN_MOTION    = 14.17223266
ECCENTRICITY   = .00195277
INCLINATION    = 70.9896
RA_OF_ASC_NODE = 90.0191
ARG_OF_PERICENTER = 267.4613
MEAN_ANOMALY   = 92.4275

EPHEMERIS_TYPE = 0
CLASSIFICATION_TYPE = U
NORAD_CAT_ID   = 22803
ELEMENT_SET_NO = 999
REV_AT_EPOCH   = 67423
BSTAR          = .47419955E-4
MEAN_MOTION_DOT = .48E-6
MEAN_MOTION_DDOT = 0

CCSDS_OMM_VERS = 2.0
CREATION_DATE  = 
ORIGINATOR     = 

OBJECT_NAME    = ARIANE 40 R/B
OBJECT_ID      = 1993-061H
CENTER_NAME    = EARTH
REF_FRAME      = TEME
TIME_SYSTEM    = UTC
MEAN_ELEMENT_THEORY = SGP/SGP4

EPOCH          = 2026-01-31T03:06:30.741408
MEAN_MOTION    = 14.32839704
ECCENTRICITY   = .00112837
INCLINATION    = 98.4996
RA_OF_ASC_NODE = 100.7435
ARG_OF_PERICENTER = 40.5566
MEAN_ANOMALY   = 319.6457

EPHEMERIS_TYPE = 0
CLASSIFICATION_TYPE = U
NORAD_CAT_ID   = 22830
ELEMENT_SET_NO = 999
REV_AT_EPOCH   = 68872
BSTAR          = .11724368E-3
MEAN_MOTION_DOT = .277E-5
MEAN_MOTION_DDOT = 0

CCSDS_OMM_VERS = 2.0
CREATION_DATE  = 
ORIGINATOR     = 

OBJECT_NAME    = COSMOS 2278
OBJECT_ID      = 1994-023A
CENTER_NAME    = EARTH
REF_FRAME      = TEME
TIME_SYSTEM    = UTC
MEAN_ELEMENT_THEORY = SGP/SGP4

EPOCH          = 2026-01-31T06:07:43.980096
MEAN_MOTION    = 14.14366093
ECCENTRICITY   = .00062967
INCLINATION    = 71.0516
RA_OF_ASC_NODE = 253.4176
ARG_OF_PERICENTER = 84.0522
MEAN_ANOMALY   = 276.1318

EPHEMERIS_TYPE = 0
CLASSIFICATION_TYPE = U
NORAD_CAT_ID   = 23087
ELEMENT_SET_NO = 999
REV_AT_EPOCH   = 63951
BSTAR          = -.70815928E-4
MEAN_MOTION_DOT = -.183E-5
MEAN_MOTION_DDOT = 0

CCSDS_OMM_VERS = 2.0
CREATION_DATE  = 
ORIGINATOR     = 

OBJECT_NAME    = SL-16 R/B
OBJECT_ID      = 1994-023B
CENTER_NAME    = EARTH
REF_FRAME      = TEME
TIME_SYSTEM    = UTC
MEAN_ELEMENT_THEORY = SGP/SGP4

EPOCH          = 2026-01-31T07:39:06.524928
MEAN_MOTION    = 14.15005024
ECCENTRICITY   = .00043501
INCLINATION    = 71.0001
RA_OF_ASC_NODE = 149.3701
ARG_OF_PERICENTER = 319.7443
MEAN_ANOMALY   = 40.3357

EPHEMERIS_TYPE = 0
CLASSIFICATION_TYPE = U
NORAD_CAT_ID   = 23088
ELEMENT_SET_NO = 999
REV_AT_EPOCH   = 64080
BSTAR          = -.10080085E-3
MEAN_MOTION_DOT = -.243E-5
MEAN_MOTION_DDOT = 0

CCSDS_OMM_VERS = 2.0
CREATION_DATE  = 
ORIGINATOR     = 

OBJECT_NAME    = SL-16 R/B
OBJECT_ID      = 1994-074B
CENTER_NAME    = EARTH
REF_FRAME      = TEME
TIME_SYSTEM    = UTC
MEAN_ELEMENT_THEORY = SGP/SGP4

EPOCH          = 2026-01-31T01:06:19.845792
MEAN_MOTION    = 14.79360304
ECCENTRICITY   = .00063492
INCLINATION    = 97.7155
RA_OF_ASC_NODE = 63.3805
ARG_OF_PERICENTER = 357.1587
MEAN_ANOMALY   = 32.6664

EPHEMERIS_TYPE = 0
CLASSIFICATION_TYPE = U
NORAD_CAT_ID   = 23343
ELEMENT_SET_NO = 999
REV_AT_EPOCH   = 68168
BSTAR          = .89114403E-4
MEAN_MOTION_DOT = .615E-5
MEAN_MOTION_DDOT = 0

CCSDS_OMM_VERS = 2.0
CREATION_DATE  = 
ORIGINATOR     = 

OBJECT_NAME    = SL-16 R/B
OBJECT_ID      = 1994-077B
CENTER_NAME    = EARTH
REF_FRAME      = TEME
TIME_SYSTEM    = UTC
MEAN_ELEMENT_THEORY = SGP/SGP4

EPOCH          = 2026-01-31T07:33:38.925504
MEAN_MOTION    = 14.15557389
ECCENTRICITY   = .00046679
INCLINATION    = 70.9819
RA_OF_ASC_NODE = 71.1199
ARG_OF_PERICENTER = 245.8180
MEAN_ANOMALY   = 114.2455

EPHEMERIS_TYPE = 0
CLASSIFICATION_TYPE = U
NORAD_CAT_ID   = 23405
ELEMENT_SET_NO = 999
REV_AT_EPOCH   = 61094
BSTAR          = -.86780665E-4
MEAN_MOTION_DOT = -.218E-5
MEAN_MOTION_DDOT = 0

CCSDS_OMM_VERS = 2.0
CREATION_DATE  = 
ORIGINATOR     = 

OBJECT_NAME    = ARIANE 40+ R/B
OBJECT_ID      = 1995-021B
CENTER_NAME    = EARTH
REF_FRAME      = TEME
TIME_SYSTEM    = UTC
MEAN_ELEMENT_THEORY = SGP/SGP4

EPOCH          = 2026-01-31T05:02:30.772896
MEAN_MOTION    = 14.39742983
ECCENTRICITY   = .00057628
INCLINATION    = 98.4574
RA_OF_ASC_NODE = 103.1860
ARG_OF_PERICENTER = 250.6500
MEAN_ANOMALY   = 122.6095

EPHEMERIS_TYPE = 0
CLASSIFICATION_TYPE = U
NORAD_CAT_ID   = 23561
ELEMENT_SET_NO = 999
REV_AT_EPOCH   = 61385
BSTAR          = .13317678E-3
MEAN_MOTION_DOT = .374E-5
MEAN_MOTION_DDOT = 0

CCSDS_OMM_VERS = 2.0
CREATION_DATE  = 
ORIGINATOR     = 

OBJECT_NAME    = SL-16 R/B
OBJECT_ID      = 1995-058B
CENTER_NAME    = EARTH
REF_FRAME      = TEME
TIME_SYSTEM    = UTC
MEAN_ELEMENT_THEORY = SGP/SGP4

EPOCH          = 2026-01-31T00:54:01.215648
MEAN_MOTION    = 14.15487991
ECCENTRICITY   = .00128174
INCLINATION    = 71.0191
RA_OF_ASC_NODE = 259.3059
ARG_OF_PERICENTER = 186.9591
MEAN_ANOMALY   = 173.1356

EPHEMERIS_TYPE = 0
CLASSIFICATION_TYPE = U
NORAD_CAT_ID   = 23705
ELEMENT_SET_NO = 999
REV_AT_EPOCH   = 56252
BSTAR          = .48230582E-4
MEAN_MOTION_DOT = .47E-6
MEAN_MOTION_DDOT = 0

CCSDS_OMM_VERS = 2.0
CREATION_DATE  = 
ORIGINATOR     = 

OBJECT_NAME    = SL-16 R/B
OBJECT_ID      = 1996-051B
CENTER_NAME    = EARTH
REF_FRAME      = TEME
TIME_SYSTEM    = UTC
MEAN_ELEMENT_THEORY = SGP/SGP4

EPOCH          = 2026-01-30T23:50:13.140960
MEAN_MOTION    = 14.12404813
ECCENTRICITY   = .00181541
INCLINATION    = 70.7567
RA_OF_ASC_NODE = 255.0304
ARG_OF_PERICENTER = 200.0806
MEAN_ANOMALY   = 159.9602

EPHEMERIS_TYPE = 0
CLASSIFICATION_TYPE = U
NORAD_CAT_ID   = 24298
ELEMENT_SET_NO = 999
REV_AT_EPOCH   = 51632
BSTAR          = .66766001E-4
MEAN_MOTION_DOT = .74E-6
MEAN_MOTION_DDOT = 0

CCSDS_OMM_VERS = 2.0
CREATION_DATE  = 
ORIGINATOR     = 

OBJECT_NAME    = ORBVIEW 2 (SEASTAR)
OBJECT_ID      = 1997-037A
CENTER_NAME    = EARTH
REF_FRAME      = TEME
TIME_SYSTEM    = UTC
MEAN_ELEMENT_THEORY = SGP/SGP4

EPOCH          = 2026-01-31T06:23:27.775680
MEAN_MOTION    = 14.35464043
ECCENTRICITY   = .00026089
INCLINATION    = 98.8503
RA_OF_ASC_NODE = 194.6003
ARG_OF_PERICENTER = 149.7037
MEAN_ANOMALY   = 210.4299

EPHEMERIS_TYPE = 0
CLASSIFICATION_TYPE = U
NORAD_CAT_ID   = 24883
ELEMENT_SET_NO = 999
REV_AT_EPOCH   = 50310
BSTAR          = .14655818E-3
MEAN_MOTION_DOT = .375E-5
MEAN_MOTION_DDOT = 0

