SL-16 R/B               
1 22566U 93016B   26031.17960230  .00000239  00000+0  14724-3 0  9994
2 22566  71.0085 293.9671 0009700   7.7033 352.4237 14.15302242696862
COSMOS 2242             
1 22626U 93024A   26031.25801273  .00002241  00000+0  19501-3 0  9993
2 22626  82.5208 302.5139 0018027  72.5288 287.7903 14.96382233774799
SL-16 R/B               
1 22803U 93059B   26031.28052531  .00000048  00000+0  47420-4 0  9991
2 22803  70.9896  90.0191 0019527 267.4613  92.4275 14.17223266674234
ARIANE 40 R/B           
1 22830U 93061H   26031.12952247  .00000277  00000+0  11724-3 0  9991
2 22830  98.4996 100.7435 0011283  40.5566 319.6457 14.32839704688720
COSMOS 2278             
1 23087U 94023A   26031.25537014 -.00000183  00000+0 -70816-4 0  9996
2 23087  71.0516 253.4176 0006296  84.0522 276.1318 14.14366093639513
SL-16 R/B               
1 23088U 94023B   26031.31882552 -.00000243  00000+0 -10080-3 0  9997
2 23088  71.0001 149.3701 0004350 319.7443  40.3357 14.15005024640802
SL-16 R/B               
1 23343U 94074B   26031.04606303  .00000615  00000+0  89114-4 0  9991
2 23343  97.7155  63.3805 0006349 357.1587  32.6664 14.79360304681687
SL-16 R/B               
1 23405U 94077B   26031.31503386 -.00000218  00000+0 -86781-4 0  9998
2 23405  70.9819  71.1199 0004667 245.8180 114.2455 14.15557389610949
ARIANE 40+ R/B          
1 23561U 95021B   26031.21007839  .00000374  00000+0  13318-3 0  9998
2 23561  98.4574 103.1860 0005762 250.6500 122.6095 14.39742983613851
SL-16 R/B               
1 23705U 95058B   26031.03751407  .00000047  00000+0  48231-4 0  9995
2 23705  71.0191 259.3059 0012817 186.9591 173.1356 14.15487991562524
SL-16 R/B               
1 24298U 96051B   26030.99320765  .00000074  00000+0  66766-4 0  9993
2 24298  70.7567 255.0304 0018154 200.0806 159.9602 14.12404813516320
ORBVIEW 2 (SEASTAR)     
1 24883U 97037A   26031.26629370  .00000375  00000+0  14656-3 0  9997
2 24883  98.8503 194.6003 0002608 149.7037 210.4299 14.35464043503100
